EXO-0                   
1 59175U 23174DK  26068.71046781  .00011582  00000+0  36716-3 0  9992
2 59175  97.3864 148.9039 0009878 157.1125 203.0559 15.32821991129797
STARLINK-36154          
1 66939U 25286Q   26068.08053053  .00048966  00000+0  16559-2 0  9992
2 66939  53.1618   1.2703 0001295  54.3015 305.8106 15.30172711 15329
